[
    {
        "Altitude(m)": 717643.2478412034,
        "Argument of Periapsis(deg)": 0.0,
        "Eccentricity": 0.0,
        "Inclination(deg)": 45.0,
        "Latitude(deg)": -44.576117910253025,
        "Longitude(deg)": -98.4978044636171,
        "Mean Anomaly(deg)": 278.1818,
        "RAAN(deg)": 80.0,
        "Satellite Name": "Constellation 1 369",
        "Satellite Number": 369,
        "Semi-Major Axis(m)": 7083131.272910544,
        "Time(s)": 0
    },
    {
        "Altitude(m)": 717639.7114326503,
        "Argument of Periapsis(deg)": 5.994800624540561e-05,
        "Eccentricity": 0.0,
        "Inclination(deg)": 45.0,
        "Latitude(deg)": -44.567557779521955,
        "Longitude(deg)": -98.4179812482588,
        "Mean Anomaly(deg)": 278.24250114024983,
        "RAAN(deg)": 79.99994341083442,
        "Satellite Name": "Constellation 1 369",
        "Satellite Number": 369,
        "Semi-Major Axis(m)": 7083131.272910544,
        "Time(s)": 1
    },
    {
        "Altitude(m)": 717636.1495101362,
        "Argument of Periapsis(deg)": 0.00011989601249081122,
        "Eccentricity": 0.0,
        "Inclination(deg)": 45.0,
        "Latitude(deg)": -44.55893599630015,
        "Longitude(deg)": -98.33818268227678,
        "Mean Anomaly(deg)": 278.30320228049976,
        "RAAN(deg)": 79.99988682166885,
        "Satellite Name": "Constellation 1 369",
        "Satellite Number": 369,
        "Semi-Major Axis(m)": 7083131.272910544,
        "Time(s)": 2
    },
    {
        "Altitude(m)": 717632.5620867886,
        "Argument of Periapsis(deg)": 0.00017984401873621686,
        "Eccentricity": 0.0,
        "Inclination(deg)": 45.0,
        "Latitude(deg)": -44.5502525968763,
        "Longitude(deg)": -98.25840892768522,
        "Mean Anomaly(deg)": 278.3639034207497,
        "RAAN(deg)": 79.9998302325033,
        "Satellite Name": "Constellation 1 369",
        "Satellite Number": 369,
        "Semi-Major Axis(m)": 7083131.272910544,
        "Time(s)": 3
    },
    {
        "Altitude(m)": 717628.9491758171,
        "Argument of Periapsis(deg)": 0.00023979202498162244,
        "Eccentricity": 0.0,
        "Inclination(deg)": 45.0,
        "Latitude(deg)": -44.54150761777129,
        "Longitude(deg)": -98.17866014608744,
        "Mean Anomaly(deg)": 278.42460456099957,
        "RAAN(deg)": 79.99977364333772,
        "Satellite Name": "Constellation 1 369",
        "Satellite Number": 369,
        "Semi-Major Axis(m)": 7083131.272910544,
        "Time(s)": 4
    },
    {
        "Altitude(m)": 717625.3107905417,
        "Argument of Periapsis(deg)": 0.00029974003122702807,
        "Eccentricity": 0.0,
        "Inclination(deg)": 45.0,
        "Latitude(deg)": -44.53270109573741,
        "Longitude(deg)": -98.09893649867355,
        "Mean Anomaly(deg)": 278.48530570124944,
        "RAAN(deg)": 79.99971705417215,
        "Satellite Name": "Constellation 1 369",
        "Satellite Number": 369,
        "Semi-Major Axis(m)": 7083131.272910544,
        "Time(s)": 5
    },
    {
        "Altitude(m)": 717621.6469443585,
        "Argument of Periapsis(deg)": 0.00035968803747243373,
        "Eccentricity": 0.0,
        "Inclination(deg)": 45.0,
        "Latitude(deg)": -44.523833067757664,
        "Longitude(deg)": -98.01923814621787,
        "Mean Anomaly(deg)": 278.5460068414994,
        "RAAN(deg)": 79.99966046500657,
        "Satellite Name": "Constellation 1 369",
        "Satellite Number": 369,
        "Semi-Major Axis(m)": 7083131.272910544,
        "Time(s)": 6
    },
    {
        "Altitude(m)": 717617.9576507668,
        "Argument of Periapsis(deg)": 0.00041963604371783933,
        "Eccentricity": 0.0,
        "Inclination(deg)": 45.0,
        "Latitude(deg)": -44.51490357104486,
        "Longitude(deg)": -97.93956541717426,
        "Mean Anomaly(deg)": 278.60670798174937,
        "RAAN(deg)": 79.99960387584102,
        "Satellite Name": "Constellation 1 369",
        "Satellite Number": 369,
        "Semi-Major Axis(m)": 7083131.272910544,
        "Time(s)": 7
    },
    {
        "Altitude(m)": 717614.2429233572,
        "Argument of Periapsis(deg)": 0.0004795840499632449,
        "Eccentricity": 0.0,
        "Inclination(deg)": 45.0,
        "Latitude(deg)": -44.505912643041434,
        "Longitude(deg)": -97.85991813528517,
        "Mean Anomaly(deg)": 278.6674091219992,
        "RAAN(deg)": 79.99954728667545,
        "Satellite Name": "Constellation 1 369",
        "Satellite Number": 369,
        "Semi-Major Axis(m)": 7083131.272910544,
        "Time(s)": 8
    },
    {
        "Altitude(m)": 717610.502775819,
        "Argument of Periapsis(deg)": 0.0005395320562086505,
        "Eccentricity": 0.0,
        "Inclination(deg)": 45.0,
        "Latitude(deg)": -44.49686032141809,
        "Longitude(deg)": -97.78029662816284,
        "Mean Anomaly(deg)": 278.72811026224906,
        "RAAN(deg)": 79.99949069750987,
        "Satellite Name": "Constellation 1 369",
        "Satellite Number": 369,
        "Semi-Major Axis(m)": 7083131.272910544,
        "Time(s)": 9
    },
    {
        "Altitude(m)": 717606.7372219238,
        "Argument of Periapsis(deg)": 0.0005994800624540561,
        "Eccentricity": 0.0,
        "Inclination(deg)": 45.0,
        "Latitude(deg)": -44.48774664407341,
        "Longitude(deg)": -97.70070105489819,
        "Mean Anomaly(deg)": 278.788811402499,
        "RAAN(deg)": 79.9994341083443,
        "Satellite Name": "Constellation 1 369",
        "Satellite Number": 369,
        "Semi-Major Axis(m)": 7083131.272910544,
        "Time(s)": 10
    },
    {
        "Altitude(m)": 717602.946275547,
        "Argument of Periapsis(deg)": 0.0006594280686994618,
        "Eccentricity": 0.0,
        "Inclination(deg)": 45.0,
        "Latitude(deg)": -44.47857164913306,
        "Longitude(deg)": -97.62113157415543,
        "Mean Anomaly(deg)": 278.8495125427489,
        "RAAN(deg)": 79.99937751917874,
        "Satellite Name": "Constellation 1 369",
        "Satellite Number": 369,
        "Semi-Major Axis(m)": 7083131.272910544,
        "Time(s)": 11
    },
    {
        "Altitude(m)": 717599.1299506566,
        "Argument of Periapsis(deg)": 0.0007193760749448675,
        "Eccentricity": 0.0,
        "Inclination(deg)": 45.0,
        "Latitude(deg)": -44.46933537494909,
        "Longitude(deg)": -97.54158834417129,
        "Mean Anomaly(deg)": 278.91021368299886,
        "RAAN(deg)": 79.99932093001317,
        "Satellite Name": "Constellation 1 369",
        "Satellite Number": 369,
        "Semi-Major Axis(m)": 7083131.272910544,
        "Time(s)": 12
    },
    {
        "Altitude(m)": 717595.2882613051,
        "Argument of Periapsis(deg)": 0.000779324081190273,
        "Eccentricity": 0.0,
        "Inclination(deg)": 45.0,
        "Latitude(deg)": -44.460037860099156,
        "Longitude(deg)": -97.46207152275159,
        "Mean Anomaly(deg)": 278.9709148232487,
        "RAAN(deg)": 79.99926434084759,
        "Satellite Name": "Constellation 1 369",
        "Satellite Number": 369,
        "Semi-Major Axis(m)": 7083131.272910544,
        "Time(s)": 13
    },
    {
        "Altitude(m)": 717591.4212216467,
        "Argument of Periapsis(deg)": 0.0008392720874356787,
        "Eccentricity": 0.0,
        "Inclination(deg)": 45.0,
        "Latitude(deg)": -44.45067914338577,
        "Longitude(deg)": -97.38258126726961,
        "Mean Anomaly(deg)": 279.03161596349855,
        "RAAN(deg)": 79.99920775168202,
        "Satellite Name": "Constellation 1 369",
        "Satellite Number": 369,
        "Semi-Major Axis(m)": 7083131.272910544,
        "Time(s)": 14
    },
    {
        "Altitude(m)": 717587.5288459302,
        "Argument of Periapsis(deg)": 0.0008992200936810842,
        "Eccentricity": 0.0,
        "Inclination(deg)": 45.0,
        "Latitude(deg)": -44.44125926383555,
        "Longitude(deg)": -97.30311790276161,
        "Mean Anomaly(deg)": 279.0923171037485,
        "RAAN(deg)": 79.99915116251647,
        "Satellite Name": "Constellation 1 369",
        "Satellite Number": 369,
        "Semi-Major Axis(m)": 7083131.272910544,
        "Time(s)": 15
    },
    {
        "Altitude(m)": 717583.6111484878,
        "Argument of Periapsis(deg)": 0.0009591680999264898,
        "Eccentricity": 0.0,
        "Inclination(deg)": 45.0,
        "Latitude(deg)": -44.43177826069872,
        "Longitude(deg)": -97.22368124953553,
        "Mean Anomaly(deg)": 279.15301824399836,
        "RAAN(deg)": 79.99909457335089,
        "Satellite Name": "Constellation 1 369",
        "Satellite Number": 369,
        "Semi-Major Axis(m)": 7083131.272910544,
        "Time(s)": 16
    },
    {
        "Altitude(m)": 717579.668143753,
        "Argument of Periapsis(deg)": 0.0010191161061718953,
        "Eccentricity": 0.0,
        "Inclination(deg)": 45.0,
        "Latitude(deg)": -44.42223617344796,
        "Longitude(deg)": -97.14427163175266,
        "Mean Anomaly(deg)": 279.21371938424824,
        "RAAN(deg)": 79.99903798418532,
        "Satellite Name": "Constellation 1 369",
        "Satellite Number": 369,
        "Semi-Major Axis(m)": 7083131.272910544,
        "Time(s)": 17
    },
    {
        "Altitude(m)": 717575.699846253,
        "Argument of Periapsis(deg)": 0.001079064112417301,
        "Eccentricity": 0.0,
        "Inclination(deg)": 45.0,
        "Latitude(deg)": -44.412633041777795,
        "Longitude(deg)": -97.06488920503598,
        "Mean Anomaly(deg)": 279.27442052449817,
        "RAAN(deg)": 79.99898139501974,
        "Satellite Name": "Constellation 1 369",
        "Satellite Number": 369,
        "Semi-Major Axis(m)": 7083131.272910544,
        "Time(s)": 18
    }
]